OBJECT_NAME,OBJECT_ID,EPOCH,MEAN_MOTION,ECCENTRICITY,INCLINATION,RA_OF_ASC_NODE,ARG_OF_PERICENTER,MEAN_ANOMALY,EPHEMERIS_TYPE,CLASSIFICATION_TYPE,NORAD_CAT_ID,ELEMENT_SET_NO,REV_AT_EPOCH,BSTAR,MEAN_MOTION_DOT,MEAN_MOTION_DDOT
ONEWEB-0158,2021-025N,2026-06-25T21:19:46.017984,13.13472357,.00016194,87.8968,318.4853,101.2762,258.8549,0,U,48054,999,25477,-.63117293E-3,-.218E-5,0
ONEWEB-0157,2021-025P,2026-06-26T07:04:50.541024,13.13470500,.00022041,87.8967,318.4097,103.1686,256.9689,0,U,48055,999,25476,.62272901E-3,.24E-5,0
ONEWEB-0162,2021-025Q,2026-06-25T21:22:01.334208,13.13470462,.00019623,87.8965,318.4909,94.0547,266.0807,0,U,48056,999,25468,-.77460789E-3,-.27E-5,0
ONEWEB-0155,2021-025R,2026-06-25T21:31:57.887328,13.13470903,.00019263,87.8964,318.4858,103.4142,256.7202,0,U,48057,999,25482,-.34927098E-3,-.115E-5,0
ONEWEB-0149,2021-025S,2026-06-26T07:12:08.858592,13.13470460,.00019913,87.8965,318.4093,92.9307,267.2050,0,U,48058,999,25468,.97111718E-3,.367E-5,0
ONEWEB-0148,2021-025T,2026-06-25T21:10:01.401024,13.13470463,.00023652,87.8961,318.4987,88.5997,271.5403,0,U,48059,999,25475,-.82289499E-3,-.288E-5,0
ONEWEB-0160,2021-025U,2026-06-25T21:34:23.276928,13.13472077,.00011624,87.8961,318.4915,86.5842,273.5421,0,U,48060,999,25470,-.29303317E-3,-.94E-6,0
ONEWEB-0163,2021-025V,2026-06-25T21:12:26.915904,13.13468574,.00021674,87.8969,318.4896,102.6479,257.4893,0,U,48061,999,25482,-.14136683E-2,-.503E-5,0
ONEWEB-0159,2021-025W,2026-06-25T22:49:57.628416,13.13469281,.00020197,87.8971,318.4698,103.0494,257.0861,0,U,48062,999,25475,-.11145742E-2,-.394E-5,0
ONEWEB-0164,2021-025X,2026-06-25T22:23:09.373632,13.13469554,.00017896,87.8971,318.4800,97.9913,262.1419,0,U,48063,999,25473,.27470428E-3,.113E-5,0
ONEWEB-0167,2021-025Y,2026-06-25T23:03:22.634496,13.13468498,.00020124,87.8960,318.4836,117.3236,242.8098,0,U,48064,999,25472,-.84800039E-3,-.297E-5,0
ONEWEB-0166,2021-025Z,2026-06-26T03:15:41.476608,13.13472174,.00019417,87.8970,318.4209,97.2602,262.8748,0,U,48065,999,25482,.24641588E-3,.103E-5,0
ONEWEB-0151,2021-025AA,2026-06-26T03:18:06.422976,13.13471126,.00018309,87.8962,318.4367,102.2014,257.9321,0,U,48066,999,25476,.40786186E-3,.162E-5,0
ONEWEB-0170,2021-025AB,2026-06-26T03:30:17.716896,13.13469767,.00016157,87.8961,318.4380,103.1143,257.0166,0,U,48067,999,25472,-.32556437E-2,-.1176E-4,0
ONEWEB-0168,2021-025AC,2026-06-25T21:39:15.341760,13.13478051,.00019821,87.8969,318.4857,99.2484,260.8869,0,U,48068,999,25470,-.53326444E-2,-.1934E-4,0
ONEWEB-0173,2021-025AD,2026-06-25T21:27:05.093280,13.13471432,.00021001,87.8962,318.4887,106.8044,253.3315,0,U,48069,999,25494,-.49436283E-3,-.168E-5,0
ONEWEB-0171,2021-025AE,2026-06-25T22:20:43.054368,13.13470235,.00018091,87.8959,318.4891,100.6706,259.4627,0,U,48070,999,25476,.42610371E-3,.168E-5,0
ONEWEB-0172,2021-025AF,2026-06-26T03:20:33.216576,13.13470275,.00018947,87.8965,318.4381,103.4599,256.6741,0,U,48071,999,25568,.84740892E-3,.322E-5,0
ONEWEB-0174,2021-025AG,2026-06-25T21:24:39.168000,13.13471060,.00020565,87.8966,318.4863,96.0276,264.1088,0,U,48072,999,25497,-.47429868E-3,-.16E-5,0
ONEWEB-0175,2021-025AH,2026-06-25T22:08:31.987680,13.13471049,.00016701,87.8970,318.4650,107.7181,252.4131,0,U,48073,999,25463,.83051942E-3,.316E-5,0
ONEWEB-0177,2021-025AJ,2026-06-25T22:25:35.603040,13.13467635,.00021116,87.8968,318.4810,98.3573,261.7796,0,U,48074,999,25482,.18465656E-3,.8E-6,0
ONEWEB-0178,2021-025AK,2026-06-25T21:02:54.883968,13.13468491,.00018879,87.8957,318.5041,106.3455,253.7882,0,U,48075,999,25486,-.67559881E-3,-.234E-5,0
ONEWEB-0108,2021-025AL,2026-06-26T03:22:59.527200,13.13471270,.00018352,87.8971,318.4315,91.2289,268.9050,0,U,48076,999,25482,.58977703E-3,.228E-5,0
ONEWEB-0169,2021-025AM,2026-06-25T22:40:13.003680,13.13470119,.00019869,87.8961,318.4777,96.6093,263.5262,0,U,48077,999,25345,-.6165853E-3,-.212E-5,0
ONEWEB-0176,2021-031A,2026-06-26T05:41:17.100672,13.14503605,.00020068,87.8969,287.8951,105.1336,255.0015,0,U,48210,999,24950,.19039548E-3,.83E-6,0
ONEWEB-0184,2021-031B,2026-06-26T06:52:04.519488,13.14503686,.00019375,87.8975,287.8872,125.1157,235.0154,0,U,48211,999,24948,.64975052E-3,.254E-5,0
ONEWEB-0179,2021-031C,2026-06-26T06:58:17.504832,14.25530560,.02193082,87.8995,284.7815,227.2369,131.0194,0,U,48212,999,25034,.1087728E-3,.349E-5,0
ONEWEB-0180,2021-031D,2026-06-26T06:56:39.805440,13.14504702,.00023019,87.8978,287.8828,107.4869,252.6512,0,U,48213,999,24941,.45778787E-3,.183E-5,0
ONEWEB-0218,2021-031E,2026-06-26T05:39:00.759744,13.14502910,.00022031,87.8983,287.8932,124.3328,235.8011,0,U,48214,999,24956,.47183869E-3,.188E-5,0
ONEWEB-0209,2021-031F,2026-06-26T07:12:37.825056,13.14501993,.00022105,87.8969,287.8960,101.3112,258.8266,0,U,48215,999,24957,.65460134E-3,.255E-5,0
